NORAD_CAT_ID,OBJECT_NAME,OBJECT_TYPE,EPOCH,MEAN_MOTION,ECCENTRICITY,INCLINATION,RA_OF_ASC_NODE,ARG_OF_PERICENTER,MEAN_ANOMALY,BSTAR,MEAN_MOTION_DOT,MEAN_MOTION_DDOT,TLE_LINE0,TLE_LINE1,TLE_LINE2,SEMIMAJOR_AXIS,PERIOD,APOGEE,PERIGEE,DECAYED
53824.0,STARLINK-4757,PAYLOAD,2024-02-13 10:40:43,15.08837095,0.000171,53.2175,94.6524,76.726,283.3922,1.2392e-05,-9.1e-07,0.0,0 STARLINK-4757,1 53824U 22114G   24044.44495056 -.00000091  00000-0  12392-4 0  9995,2 53824  53.2175  94.6524 0001710  76.7260 283.3922 15.08837095 78273,6917.889,95.438,540.937,538.571,0.0
53824.0,STARLINK-4757,PAYLOAD,2024-02-13 12:16:06,15.08841337,0.0001701,53.2176,94.3525,96.3142,263.8044,5.1944e-05,5.39e-06,0.0,0 STARLINK-4757,1 53824U 22114G   24044.51118628  .00000539  00000-0  51944-4 0  9992,2 53824  53.2176  94.3525 0001701  96.3142 263.8044 15.08841337 78732,6917.876,95.437,540.918,538.565,0.0
53824.0,STARLINK-4757,PAYLOAD,2024-02-13 20:13:02,15.08835269,0.0001649,53.2166,92.8637,86.4974,273.6207,-1.2408e-05,-4.85e-06,0.0,0 STARLINK-4757,1 53824U 22114G   24044.84238752 -.00000485  00000-0 -12408-4 0  9993,2 53824  53.2166  92.8637 0001649  86.4974 273.6207 15.08835269 78784,6917.895,95.438,540.901,538.619,0.0
53824.0,STARLINK-4757,PAYLOAD,2024-02-14 12:06:52,15.08849254,0.0001864,53.2177,89.8873,91.193,268.9276,0.00021447,3.128e-05,0.0,0 STARLINK-4757,1 53824U 22114G   24045.50477927  .00003128  00000-0  21447-3 0  9993,2 53824  53.2177  89.8873 0001864  91.1930 268.9276 15.08849254 78432,6917.852,95.437,541.007,538.428,0.0
53824.0,STARLINK-4757,PAYLOAD,2024-02-14 20:03:49,15.08833576,0.0001756,53.2172,88.404,82.8825,277.2367,0.00016177,2.287e-05,0.0,0 STARLINK-4757,1 53824U 22114G   24045.83599083  .00002287  00000-0  16177-3 0  9996,2 53824  53.2172  88.4040 0001756  82.8825 277.2367 15.08833576 78487,6917.9,95.438,540.98,538.55,0.0
53824.0,STARLINK-4757,PAYLOAD,2024-02-15 10:22:17,15.08839921,0.0001614,53.2161,85.7267,85.9849,274.1327,0.00011114,1.481e-05,0.0,0 STARLINK-4757,1 53824U 22114G   24046.43214926  .00001481  00000-0  11114-3 0  9994,2 53824  53.2161  85.7267 0001614  85.9849 274.1327 15.08839921 79022,6917.881,95.438,540.862,538.629,0.0
53824.0,STARLINK-4757,PAYLOAD,2024-02-15 19:54:36,15.08843234,0.0001621,53.2159,83.945,83.2957,276.822,0.00011988,1.621e-05,0.0,0 STARLINK-4757,1 53824U 22114G   24046.82958898  .00001621  00000-0  11988-3 0  9995,2 53824  53.2159  83.9450 0001621  83.2957 276.8220 15.08843234 79081,6917.871,95.437,540.857,538.614,0.0
53824.0,STARLINK-4757,PAYLOAD,2024-02-16 02:16:09,15.08842594,0.0001639,53.2157,82.7564,82.7886,277.3293,0.00013492,1.86e-05,0.0,0 STARLINK-4757,1 53824U 22114G   24047.09455000  .00001860  00000-0  13492-3 0  9999,2 53824  53.2157  82.7564 0001639  82.7886 277.3293 15.08842594 78674,6917.872,95.437,540.871,538.604,0.0
53824.0,STARLINK-4757,PAYLOAD,2024-02-16 08:37:41,15.08848545,0.0001724,53.2184,81.5661,89.8211,270.2979,0.0001862,2.677e-05,0.0,0 STARLINK-4757,1 53824U 22114G   24047.35950739  .00002677  00000-0  18620-3 0  9992,2 53824  53.2184  81.5661 0001724  89.8211 270.2979 15.08848545 79164,6917.854,95.437,540.912,538.527,0.0
53824.0,STARLINK-4757,PAYLOAD,2024-02-17 08:28:28,15.08840655,0.0001583,53.216,77.1033,95.4677,264.6496,0.00015003,2.101e-05,0.0,0 STARLINK-4757,1 53824U 22114G   24048.35311029  .00002101  00000-0  15003-3 0  9990,2 53824  53.2160  77.1033 0001583  95.4677 264.6496 15.08840655 78865,6917.878,95.438,540.838,538.648,0.0
53824.0,STARLINK-4757,PAYLOAD,2024-02-18 08:19:15,15.08842468,0.0001424,53.2162,72.6478,90.1618,269.9538,9.5732e-05,1.236e-05,0.0,0 STARLINK-4757,1 53824U 22114G   24049.34670977  .00001236  00000-0  95732-4 0  9996,2 53824  53.2162  72.6478 0001424  90.1618 269.9538 15.08842468 79467,6917.873,95.437,540.723,538.753,0.0
53824.0,STARLINK-4757,PAYLOAD,2024-02-18 17:51:34,15.08843233,0.0001648,53.2167,70.8618,92.6773,267.4408,3.9935e-05,3.48e-06,0.0,0 STARLINK-4757,1 53824U 22114G   24049.74414936  .00000348  00000-0  39935-4 0  9997,2 53824  53.2167  70.8618 0001648  92.6773 267.4408 15.08843233 79072,6917.871,95.437,540.876,538.595,0.0
53824.0,STARLINK-4757,PAYLOAD,2024-02-19 06:34:39,15.08840704,0.0001643,53.2173,68.4821,97.5089,262.609,8.4522e-05,1.057e-05,0.0,0 STARLINK-4757,1 53824U 22114G   24050.27407137  .00001057  00000-0  84522-4 0  9992,2 53824  53.2173  68.4821 0001643  97.5089 262.6090 15.08840704 79600,6917.878,95.438,540.88,538.607,0.0
53824.0,STARLINK-4757,PAYLOAD,2024-02-19 17:42:21,15.08844489,0.0001665,53.2171,66.4018,95.5266,264.5916,4.1031e-05,3.65e-06,0.0,0 STARLINK-4757,1 53824U 22114G   24050.73774970  .00000365  00000-0  41031-4 0  9994,2 53824  53.2171  66.4018 0001665  95.5266 264.5916 15.08844489 79672,6917.867,95.437,540.883,538.58,0.0
53824.0,STARLINK-4757,PAYLOAD,2024-02-20 01:39:18,15.08832273,0.0001785,53.2183,64.9159,95.9194,264.2002,-6.6726e-06,-3.94e-06,0.0,0 STARLINK-4757,1 53824U 22114G   24051.06896016 -.00000394  00000-0 -66726-5 0  9990,2 53824  53.2183  64.9159 0001785  95.9194 264.2002 15.08832273 79278,6917.904,95.438,541.004,538.534,0.0
53824.0,STARLINK-4757,PAYLOAD,2024-02-20 08:00:50,15.08832061,0.0001757,53.2182,63.7267,96.0997,264.0196,-1.9925e-05,-6.05e-06,0.0,0 STARLINK-4757,1 53824U 22114G   24051.33392123 -.00000605  00000-0 -19925-4 0  9993,2 53824  53.2182  63.7267 0001757  96.0997 264.0196 15.08832061 79767,6917.905,95.438,540.985,538.554,0.0
53824.0,STARLINK-4757,PAYLOAD,2024-02-20 17:33:09,15.08834889,0.0001791,53.2186,61.9422,95.4555,264.6641,3.1163e-05,2.08e-06,0.0,0 STARLINK-4757,1 53824U 22114G   24051.73135953  .00000208  00000-0  31163-4 0  9998,2 53824  53.2186  61.9422 0001791  95.4555 264.6641 15.08834889 79823,6917.896,95.438,541.0,538.522,0.0
53824.0,STARLINK-4757,PAYLOAD,2024-02-21 07:51:36,15.08844703,0.0001809,53.219,59.2666,101.2518,258.8678,0.00010218,1.339e-05,0.0,0 STARLINK-4757,1 53824U 22114G   24052.32751155  .00001339  00000-0  10218-3 0  9995,2 53824  53.2190  59.2666 0001809 101.2518 258.8678 15.08844703 79464,6917.866,95.437,540.982,538.48,0.0
53824.0,STARLINK-4757,PAYLOAD,2024-02-21 17:23:56,15.08841573,0.0001514,53.2166,57.4783,85.8868,274.2297,6.2032e-05,6.99e-06,0.0,0 STARLINK-4757,1 53824U 22114G   24052.72495408  .00000699  00000-0  62032-4 0  9995,2 53824  53.2166  57.4783 0001514  85.8868 274.2297 15.08841573 79972,6917.876,95.437,540.788,538.693,0.0
53824.0,STARLINK-4757,PAYLOAD,2024-02-22 04:31:38,15.0882833,0.0001644,53.2173,55.3981,89.0929,271.0252,7.3864e-05,8.87e-06,0.0,0 STARLINK-4757,1 53824U 22114G   24053.18864427  .00000887  00000-0  73864-4 0  9991,2 53824  53.2173  55.3981 0001644  89.0929 271.0252 15.08828330 79595,6917.916,95.438,540.918,538.644,0.0
53824.0,STARLINK-4757,PAYLOAD,2024-02-22 07:42:25,15.08832304,0.0001699,53.2184,54.8038,87.7309,272.3878,5.1517e-05,5.32e-06,0.0,0 STARLINK-4757,1 53824U 22114G   24053.32112355  .00000532  00000-0  51517-4 0  9991,2 53824  53.2184  54.8038 0001699  87.7309 272.3878 15.08832304 80069,6917.904,95.438,540.944,538.594,0.0
53824.0,STARLINK-4757,PAYLOAD,2024-02-22 17:14:43,15.08837308,0.0001667,53.2186,53.0188,86.0583,274.06,5.8481e-05,6.43e-06,0.0,0 STARLINK-4757,1 53824U 22114G   24053.71856113  .00000643  00000-0  58481-4 0  9991,2 53824  53.2186  53.0188 0001667  86.0583 274.0600 15.08837308 79675,6917.889,95.438,540.907,538.6,0.0
53824.0,STARLINK-4757,PAYLOAD,2024-02-23 04:22:23,15.08900907,0.0002129,53.219,50.9361,76.2052,283.9177,-0.00073879,-0.00012047,0.0,0 STARLINK-4757,1 53824U 22114G   24054.18221811 -.00012047  00000-0 -73879-3 0  9994,2 53824  53.2190  50.9361 0002129  76.2052 283.9177 15.08900907 79747,6917.694,95.434,541.032,538.086,0.0
53824.0,STARLINK-4757,PAYLOAD,2024-02-23 05:57:48,15.08848799,0.000147,53.2174,50.6387,92.5908,267.5253,3.0263e-05,1.94e-06,0.0,0 STARLINK-4757,1 53824U 22114G   24054.24847372  .00000194  00000-0  30263-4 0  9996,2 53824  53.2174  50.6387 0001470  92.5908 267.5253 15.08848799 79757,6917.853,95.437,540.735,538.702,0.0
53824.0,STARLINK-4757,PAYLOAD,2024-02-23 17:05:29,15.08849232,0.0001456,53.2175,48.558,94.8321,265.2838,3.8421e-05,3.24e-06,0.0,0 STARLINK-4757,1 53824U 22114G   24054.71215163  .00000324  00000-0  38421-4 0  9994,2 53824  53.2175  48.5580 0001456  94.8321 265.2838 15.08849232 80273,6917.852,95.437,540.724,538.71,0.0
53824.0,STARLINK-4757,PAYLOAD,2024-02-24 04:13:12,15.08834698,0.0001527,53.2179,46.4764,88.3367,271.78,0.00011517,1.545e-05,0.0,0 STARLINK-4757,1 53824U 22114G   24055.17584018  .00001545  00000-0  11517-3 0  9995,2 53824  53.2179  46.4764 0001527  88.3367 271.7800 15.08834698 79892,6917.897,95.438,540.818,538.705,0.0
53824.0,STARLINK-4757,PAYLOAD,2024-02-24 08:59:21,15.0884592,0.0001705,53.2196,45.5815,93.3676,266.7511,0.00010162,1.33e-05,0.0,0 STARLINK-4757,1 53824U 22114G   24055.37455340  .00001330  00000-0  10162-3 0  9999,2 53824  53.2196  45.5815 0001705  93.3676 266.7511 15.08845920 79922,6917.862,95.437,540.907,538.548,0.0
53824.0,STARLINK-4757,PAYLOAD,2024-02-25 05:39:22,15.08841828,0.0001568,53.2183,41.7189,96.2631,263.854,2.8037e-05,1.58e-06,0.0,0 STARLINK-4757,1 53824U 22114G   24056.23567920  .00000158  00000-0  28037-4 0  9991,2 53824  53.2183  41.7189 0001568  96.2631 263.8540 15.08841828 80059,6917.875,95.437,540.825,538.655,0.0
53824.0,STARLINK-4757,PAYLOAD,2024-02-25 23:08:37,15.08842168,0.0001493,53.2181,38.4472,99.4215,260.6946,7.4201e-05,8.93e-06,0.0,0 STARLINK-4757,1 53824U 22114G   24056.96431742  .00000893  00000-0  74201-4 0  9993,2 53824  53.2181  38.4472 0001493  99.4215 260.6946 15.08842168 80610,6917.874,95.437,540.772,538.706,0.0
53824.0,STARLINK-4757,PAYLOAD,2024-02-26 05:30:09,15.08851488,0.0001476,53.218,37.2594,97.2302,262.8858,0.00011555,1.552e-05,0.0,0 STARLINK-4757,1 53824U 22114G   24057.22927145  .00001552  00000-0  11555-3 0  9995,2 53824  53.2180  37.2594 0001476  97.2302 262.8858 15.08851488 80201,6917.845,95.437,540.731,538.689,0.0
